CZ-6A DEB               
1 54271U 22151N   22339.28020060  .00013087  00000+0  71770-2 0  9999
2 54271  98.7470 343.1592 0211217 302.5746  55.5179 14.01226062  2710
CZ-6A DEB               
1 54272U 22151P   22339.28038560  .00000899  00000+0  45638-3 0  9996
2 54272  98.9275 344.9057 0028983 280.2459  79.5448 14.18356880  3042
CZ-6A DEB               
1 54273U 22151Q   22339.45059552  .00001761  00000+0  97674-3 0  9996
2 54273  98.8070 344.0925 0029761   2.1707 357.9589 14.12288507  2741
CZ-6A DEB               
1 54274U 22151R   22339.33622417  .00062110  00000+0  19504-1 0  9999
2 54274  98.8275 344.5736 0240829 272.7015  84.6622 14.24898276  2768
CZ-6A DEB               
1 54275U 22151S   22339.50257177  .00003930  00000+0  11603-2 0  9994
2 54275  98.9069 345.8201 0130532 227.7725 131.2327 14.39290969  2839
CZ-6A DEB               
1 54276U 22151T   22339.57896056  .00000314  00000+0  31840-3 0  9996
2 54276  98.7408 342.4249 0208867  16.7341 344.0568 13.74481787  2702
CZ-6A DEB               
1 54277U 22151U   22339.43444451  .00000216  00000+0  12735-3 0  9993
2 54277  98.8870 344.7769 0047578 283.4873  76.1003 14.17550404  2755
CZ-6A DEB               
1 54278U 22151V   22338.98827514  .00003081  00000+0  15958-2 0  9990
2 54278  98.6145 342.3835 0146296 294.7391  63.8614 14.10238769  2698
CZ-6A DEB               
1 54279U 22151W   22338.98230664  .00000483  00000+0  19054-3 0  9990
2 54279  98.6350 343.1574 0144033 258.8014  99.6948 14.28149603  2724
CZ-6A DEB               
1 54280U 22151X   22339.24018148  .00001454  00000+0  56134-3 0  9992
2 54280  98.6559 343.5889 0089218 241.3438 117.8751 14.29559687  2767
CZ-6A DEB               
1 54281U 22151Y   22339.24452126  .00000270  00000+0  10749-3 0  9998
2 54281  98.6447 343.6780 0103973 233.0613 126.1014 14.33613753  2779
CZ-6A DEB               
1 54282U 22151Z   22339.29405060  .00003489  00000+0  12458-2 0  9992
2 54282  98.6280 343.5078 0123361 249.7399 109.0487 14.30606509  2774
CZ-6A DEB               
1 54283U 22151AA  22339.45411425  .00000310  00000+0  20596-3 0  9996
2 54283  98.7890 343.8146 0054032  29.0135 331.4019 14.07730437  2759
CZ-6A DEB               
1 54284U 22151AB  22339.44834741  .00001594  00000+0  95035-3 0  9991
2 54284  98.8177 343.9998 0049762  17.4871 342.7998 14.08107555  2758
CZ-6A DEB               
1 54285U 22151AC  22339.26556518  .00001419  00000+0  93166-3 0  9994
2 54285  98.8146 343.5817 0082418  27.4869 333.0620 14.01901908  2712
CZ-6A DEB               
1 54286U 22151AD  22339.25811364  .00003826  00000+0  94825-3 0  9994
2 54286  98.6971 344.4906 0150549 217.2014 141.8672 14.45889554  2800
CZ-6A DEB               
1 54287U 22151AE  22339.00853961  .00013804  00000+0  26595-2 0  9992
2 54287  98.7029 344.5488 0185806 216.9124 141.9165 14.53166419  2775
CZ-6A DEB               
1 54288U 22151AF  22339.26190964  .00001958  00000+0  44087-3 0  9992
2 54288  98.7845 345.2105 0161293 209.1049 150.1082 14.49954001  2801
CZ-6A DEB               
1 54289U 22151AG  22339.25166960  .00000154  00000+0  11628-3 0  9993
2 54289  98.8063 343.7001 0055624  24.8303 335.5524 14.07069231  2725
CZ-6A DEB               
1 54290U 22151AH  22339.45317199  .00000348  00000+0  14181-3 0  9991
2 54290  98.5707 343.2628 0127644 252.0202 106.7034 14.29352442  2798
CZ-6A DEB               
1 54291U 22151AJ  22339.28926193  .00000194  00000+0  14392-3 0  9996
2 54291  98.8049 343.6423 0081367 332.2272  27.4562 14.04776216  2727
CZ-6A DEB               
1 54292U 22151AK  22339.27972475 -.00000074  00000+0 -18841-4 0  9993
2 54292  98.8255 343.7814 0062937  21.0381 339.3355 14.05353996  2720
CZ-6A DEB               
1 54293U 22151AL  22339.29222954  .00000352  00000+0  17849-3 0  9999
2 54293  98.8158 344.3552 0040173 254.0770 105.5978 14.21960668  2752
CZ-6A DEB               
1 54294U 22151AM  22339.48177255  .00003208  00000+0  72455-3 0  9991
2 54294  98.8522 345.8427 0162758 213.0360 146.0583 14.49181854  2832
CZ-6A DEB               
1 54295U 22151AN  22339.43335850  .00002644  00000+0  12383-2 0  9990
2 54295  98.7420 343.7243 0174433 285.8379  72.3625 14.13362914  2761
CZ-6A DEB               
1 54296U 22151AP  22339.23362149  .00001145  00000+0  49982-3 0  9991
2 54296  98.8683 344.7627 0032882 188.1180 171.9471 14.25601794  2756
CZ-6A DEB               
1 54297U 22151AQ  22339.43667711  .00000892  00000+0  42421-3 0  9996
2 54297  98.7534 344.0993 0027595 130.8105 229.5472 14.21746794  2786
CZ-6A DEB               
1 54298U 22151AR  22339.27440111  .00000056  00000+0  59286-4 0  9992
2 54298  98.7648 343.4133 0062862  26.4829 333.9529 14.05683800  2739
CZ-6A DEB               
1 54299U 22151AS  22339.25531616  .00000039  00000+0  48735-4 0  9990
2 54299  98.8127 343.7349 0055238  16.7111 343.5862 14.06844500  2701
CZ-6A DEB               
1 54300U 22151AT  22339.25270928  .00000866  00000+0  53588-3 0  9998
2 54300  98.9037 344.3021 0060820 342.8033  17.1074 14.07018940  2709
CZ-6A DEB               
1 54301U 22151AU  22339.46242295  .00000541  00000+0  34388-3 0  9995
2 54301  98.9027 344.5104 0056745 349.4855  10.5122 14.07230274  2739
CZ-6A DEB               
1 54302U 22151AV  22339.02698848  .00002082  00000+0  51498-3 0  9990
2 54302  98.9630 345.9939 0141308 168.7308 191.7104 14.47330463  2766
CZ-6A DEB               
1 54303U 22151AW  22339.29494511  .00000118  00000+0  92769-4 0  9996
2 54303  98.8340 343.9763 0047521  25.5335 334.8168 14.08765383  2714
CZ-6A DEB               
1 54304U 22151AX  22339.43948450  .00000959  00000+0  57685-3 0  9999
2 54304  98.8352 344.1193 0046706  12.5309 347.7011 14.08631288  2737
CZ-6A DEB               
1 54305U 22151AY  22339.27888069  .00000237  00000+0  12326-3 0  9993
2 54305  98.8198 344.3988 0056355 119.1855 241.4977 14.22781830  2759
CZ-6A DEB               
1 54306U 22151AZ  22339.27689907  .00000193  00000+0  13347-3 0  9999
2 54306  98.8176 343.8951 0041041  16.1330 344.1136 14.09873753  2715
CZ-6A DEB               
1 54307U 22151BA  22339.25364993  .00004562  00000+0  15253-2 0  9994
2 54307  98.6175 343.4981 0131219 245.2319 113.5165 14.33138743  2755
CZ-6A DEB               
1 54308U 22151BB  22339.24352606  .00004443  00000+0  14847-2 0  9998
2 54308  98.6975 344.0142 0122782 241.4858 117.3919 14.33764928  2750
CZ-6A DEB               
1 54309U 22151BC  22339.26781792  .00000258  00000+0  16823-3 0  9990
2 54309  98.8170 343.9051 0038063  14.7465 345.4807 14.10431104  2718
CZ-6A DEB               
1 54310U 22151BD  22339.47808087  .00008560  00000+0  24321-2 0  9997
2 54310  98.6114 343.9777 0127931 221.3351 137.8101 14.40916237  2824
CZ-6A DEB               
1 54311U 22151BE  22339.26249482  .00004293  00000+0  13345-2 0  9996
2 54311  98.6974 344.1537 0127939 234.0229 124.9038 14.36930169  2763
CZ-6A DEB               
1 54312U 22151BF  22338.75987475  .00001618  00000+0  77947-3 0  9998
2 54312  98.9683 344.7000 0024175 263.6573  96.1849 14.20052872  2672
CZ-6A DEB               
1 54313U 22151BG  22339.25004381  .00006170  00000+0  18869-2 0  9996
2 54313  98.6939 344.1500 0125079 230.5758 128.4303 14.37741224  2764
CZ-6A DEB               
1 54314U 22151BH  22338.67822463  .00005918  00000+0  15403-2 0  9991
2 54314  98.6179 343.2976 0152897 228.7233 130.0707 14.43198166  2690
CZ-6A DEB               
1 54315U 22151BJ  22339.56826110  .00000173  00000+0  12276-3 0  9998
2 54315  98.8326 344.2596 0045152  27.7918 332.5651 14.09419674  2754
CZ-6A DEB               
1 54316U 22151BK  22339.49516473  .00000447  00000+0  27776-3 0  9994
2 54316  98.7968 343.9693 0042267  12.1672 348.0509 14.09554736  2752
CZ-6A DEB               
1 54317U 22151BL  22338.99523297  .00007808  00000+0  14840-2 0  9996
2 54317  98.7105 344.6120 0186222 213.8253 145.0951 14.53883303  2765
CZ-6A DEB               
1 54318U 22151BM  22339.25362822  .00000785  00000+0  48926-3 0  9992
2 54318  98.8157 343.7549 0055282  19.6391 340.6891 14.06963935  2703
CZ-6A DEB               
1 54319U 22151BN  22339.43358738  .00014335  00000+0  32972-2 0  9993
2 54319  98.6590 344.3505 0201241 239.4669 118.6523 14.43795298  2813
CZ-6A DEB               
1 54320U 22151BP  22339.29872136  .00000355  00000+0  29255-3 0  9990
2 54320  98.8419 343.3821 0136442 351.9951   7.9032 13.91183583  2692
CZ-6A DEB               
1 54321U 22151BQ  22339.75392136  .00001057  00000+0  34241-3 0  9990
2 54321  98.6879 344.5778 0127834 232.8096 126.1365 14.36615769  2832
CZ-6A DEB               
1 54322U 22151BR  22339.26144957  .00006753  00000+0  15075-2 0  9994
2 54322  98.7324 344.7192 0197731 235.1908 123.0540 14.45738843  2797
CZ-6A DEB               
1 54323U 22151BS  22339.25889751  .00000425  00000+0  27812-3 0  9995
2 54323  98.8080 343.7011 0055969   4.9229 355.2478 14.06634941  2724
CZ-6A DEB               
1 54324U 22151BT  22339.76411054  .00065769  00000+0  18483-2 0  9994
2 54324  98.6577 346.6287 0349633 199.6887 159.0549 14.92655002  2957
CZ-6A DEB               
1 54325U 22151BU  22339.24471043  .00000266  00000+0  16868-3 0  9999
2 54325  98.7844 343.7329 0034164  33.2091 327.1216 14.11847396  2725
CZ-6A DEB               
1 54326U 22151BV  22338.95908757  .00059021  00000+0  57486-2 0  9997
2 54326  99.0842 347.4252 0288156 228.6267 128.9831 14.65959744  2787
CZ-6A DEB               
1 54327U 22151BW  22339.23771603  .00000659  00000+0  40841-3 0  9999
2 54327  98.7883 343.6074 0050911  21.3823 338.9458 14.07932103  2707
CZ-6A DEB               
1 54328U 22151BX  22339.46171507  .00004520  00000+0  11084-2 0  9999
2 54328  98.7283 344.9096 0151948 216.7911 142.2777 14.46156515  2810
CZ-6A DEB               
1 54329U 22151BY  22339.48802559  .00002596  00000+0  58476-3 0  9998
2 54329  98.7357 345.0872 0169667 150.8356 210.2443 14.48777077  2826
